NORAD_CAT_ID,OBJECT_NAME,OBJECT_TYPE,EPOCH,MEAN_MOTION,ECCENTRICITY,INCLINATION,RA_OF_ASC_NODE,ARG_OF_PERICENTER,MEAN_ANOMALY,BSTAR,MEAN_MOTION_DOT,MEAN_MOTION_DDOT,TLE_LINE0,TLE_LINE1,TLE_LINE2,SEMIMAJOR_AXIS,PERIOD,APOGEE,PERIGEE,DECAYED
53163.0,STARLINK-4104,PAYLOAD,2024-05-14 20:19:44,15.0889283,0.0001171,53.216,264.3701,106.9936,253.1185,0.00079698,0.00012437,0.0,0 STARLINK-4104,1 53163U 22083AH  24135.84704385  .00012437  00000-0  79698-3 0  9996,2 53163  53.2160 264.3701 0001171 106.9936 253.1185 15.08892830101779,6917.719,95.434,540.394,538.774,0.0
53163.0,STARLINK-4104,PAYLOAD,2024-05-15 04:16:40,15.08858252,0.00013,53.2161,262.8837,105.5381,254.5754,-0.00026213,-4.459e-05,0.0,0 STARLINK-4104,1 53163U 22083AH  24136.17824947 -.00004459  00000-0 -26213-3 0  9992,2 53163  53.2161 262.8837 0001300 105.5381 254.5754 15.08858252101829,6917.825,95.436,540.589,538.79,0.0
53163.0,STARLINK-4104,PAYLOAD,2024-05-15 13:48:58,15.08863938,0.0001193,53.2161,261.0995,95.413,264.6998,3.1063e-05,2.07e-06,0.0,0 STARLINK-4104,1 53163U 22083AH  24136.57568276  .00000207  00000-0  31063-4 0  9991,2 53163  53.2161 261.0995 0001193  95.4130 264.6998 15.08863938101250,6917.807,95.436,540.498,538.847,0.0
53163.0,STARLINK-4104,PAYLOAD,2024-05-15 20:10:31,15.08878434,0.0001109,53.2159,259.9101,69.122,290.9891,0.0022764,0.00036165,0.0,0 STARLINK-4104,1 53163U 22083AH  24136.84063884  .00036165  00000-0  22764-2 0  9994,2 53163  53.2159 259.9101 0001109  69.1220 290.9891 15.08878434101922,6917.763,95.435,540.395,538.861,0.0
53163.0,STARLINK-4104,PAYLOAD,2024-05-16 04:07:27,15.08845936,9.04e-05,53.2157,258.4228,79.7398,280.3696,0.00078889,0.00012292,0.0,0 STARLINK-4104,1 53163U 22083AH  24137.17184407  .00012292  00000-0  78889-3 0  9991,2 53163  53.2157 258.4228 0000904  79.7398 280.3696 15.08845936101971,6917.862,95.437,540.353,539.102,0.0
53163.0,STARLINK-4104,PAYLOAD,2024-05-16 12:04:22,15.08880245,9.36e-05,53.2156,256.9359,84.1894,275.9204,0.0030535,0.00048698,0.0,0 STARLINK-4104,1 53163U 22083AH  24137.50303894  .00048698  00000-0  30535-2 0  9995,2 53163  53.2156 256.9359 0000936  84.1894 275.9204 15.08880245102028,6917.757,95.435,540.27,538.975,0.0
53163.0,STARLINK-4104,PAYLOAD,2024-05-16 15:15:08,15.0889413,0.0001004,53.2156,256.3412,87.0111,273.0996,0.0036795,0.00058848,0.0,0 STARLINK-4104,1 53163U 22083AH  24137.63551563  .00058848  00000-0  36795-2 0  9999,2 53163  53.2156 256.3412 0001004  87.0111 273.0996 15.08894130101410,6917.715,95.434,540.274,538.885,0.0
53163.0,STARLINK-4104,PAYLOAD,2024-05-16 20:01:17,15.08935704,9.56e-05,53.2156,255.4493,77.9912,282.1188,0.0041221,0.00066104,0.0,0 STARLINK-4104,1 53163U 22083AH  24137.83422465  .00066104  00000-0  41221-2 0  9993,2 53163  53.2156 255.4493 0000956  77.9912 282.1188 15.08935704102071,6917.588,95.432,540.114,538.792,0.0
53163.0,STARLINK-4104,PAYLOAD,2024-05-17 11:55:09,15.08836541,7.47e-05,53.2153,252.4755,71.6944,288.4129,0.0027015,0.00042965,0.0,0 STARLINK-4104,1 53163U 22083AH  24138.49663623  .00042965  00000-0  27015-2 0  9993,2 53163  53.2153 252.4755 0000747  71.6944 288.4129 15.08836541102174,6917.891,95.438,540.273,539.239,0.0
53163.0,STARLINK-4104,PAYLOAD,2024-05-17 16:41:19,15.08783887,7.64e-05,53.2153,251.5832,64.1276,295.9795,0.0026636,0.00042292,0.0,0 STARLINK-4104,1 53163U 22083AH  24138.69536439  .00042292  00000-0  26636-2 0  9990,2 53163  53.2153 251.5832 0000764  64.1276 295.9795 15.08783887102204,6918.052,95.441,540.445,539.388,0.0
53163.0,STARLINK-4104,PAYLOAD,2024-05-18 13:21:20,15.08887184,7.97e-05,53.2152,247.7175,85.6602,274.4481,0.0035228,0.00056298,0.0,0 STARLINK-4104,1 53163U 22083AH  24139.55648414  .00056298  00000-0  35228-2 0  9991,2 53163  53.2152 247.7175 0000797  85.6602 274.4481 15.08887184102330,6917.736,95.435,540.153,539.05,0.0
53163.0,STARLINK-4104,PAYLOAD,2024-05-18 14:56:43,15.08901295,8.7e-05,53.2151,247.42,81.6752,278.4339,0.0032584,0.0005204,0.0,0 STARLINK-4104,1 53163U 22083AH  24139.62272094  .00052040  00000-0  32584-2 0  9999,2 53163  53.2151 247.4200 0000870  81.6752 278.4339 15.08901295101716,6917.693,95.434,540.16,538.956,0.0
53163.0,STARLINK-4104,PAYLOAD,2024-05-19 00:29:01,15.08859651,0.0001034,53.2154,245.6366,96.0642,264.0467,0.0027611,0.00043953,0.0,0 STARLINK-4104,1 53163U 22083AH  24140.02015919  .00043953  00000-0  27611-2 0  9994,2 53163  53.2154 245.6366 0001034  96.0642 264.0467 15.08859651102401,6917.82,95.436,540.401,538.97,0.0
53163.0,STARLINK-4104,PAYLOAD,2024-05-19 13:12:07,15.0882667,9.22e-05,53.2152,243.2566,123.0347,237.0734,0.003096,0.00049312,0.0,0 STARLINK-4104,1 53163U 22083AH  24140.55008960  .00049312  00000-0  30960-2 0  9996,2 53163  53.2152 243.2566 0000922 123.0347 237.0734 15.08826670101853,6917.921,95.438,540.424,539.148,0.0
53163.0,STARLINK-4104,PAYLOAD,2024-05-20 13:02:54,15.08856888,0.0001382,53.217,238.7924,114.2505,245.8632,0.0013719,0.00021623,0.0,0 STARLINK-4104,1 53163U 22083AH  24141.54369180  .00021623  00000-0  13719-2 0  9998,2 53163  53.2170 238.7924 0001382 114.2505 245.8632 15.08856888102634,6917.829,95.436,540.65,538.738,0.0
53163.0,STARLINK-4104,PAYLOAD,2024-05-21 12:53:42,15.08843188,0.000135,53.2173,234.3334,125.7018,234.41,0.00040255,6.125e-05,0.0,0 STARLINK-4104,1 53163U 22083AH  24142.53729365  .00006125  00000-0  40255-3 0  9999,2 53163  53.2173 234.3334 0001350 125.7018 234.4100 15.08843188102784,6917.871,95.437,540.67,538.802,0.0
53163.0,STARLINK-4104,PAYLOAD,2024-05-22 11:09:06,15.08845397,0.0001077,53.2169,230.1766,102.6288,257.4825,0.00045267,6.925e-05,0.0,0 STARLINK-4104,1 53163U 22083AH  24143.46465677  .00006925  00000-0  45267-3 0  9991,2 53163  53.2169 230.1766 0001077 102.6288 257.4825 15.08845397102920,6917.864,95.437,540.474,538.984,0.0
53163.0,STARLINK-4104,PAYLOAD,2024-05-23 10:59:53,15.08835735,0.0001204,53.216,225.7211,115.238,244.8737,4.5645e-05,4.39e-06,0.0,0 STARLINK-4104,1 53163U 22083AH  24144.45826088  .00000439  00000-0  45645-4 0  9993,2 53163  53.2160 225.7211 0001204 115.2380 244.8737 15.08835735103075,6917.893,95.438,540.591,538.926,0.0
53163.0,STARLINK-4104,PAYLOAD,2024-05-24 12:26:03,15.08862282,0.0001139,53.2149,220.9588,120.0549,240.0556,0.00047459,7.278e-05,0.0,0 STARLINK-4104,1 53163U 22083AH  24145.51809059  .00007278  00000-0  47459-3 0  9992,2 53163  53.2149 220.9588 0001139 120.0549 240.0556 15.08862282103236,6917.812,95.436,540.465,538.889,0.0
53163.0,STARLINK-4104,PAYLOAD,2024-05-24 14:01:26,15.08860739,0.0001194,53.2154,220.658,69.7036,290.4084,0.00034624,5.23e-05,0.0,0 STARLINK-4104,1 53163U 22083AH  24145.58432972  .00005230  00000-0  34624-3 0  9991,2 53163  53.2154 220.6580 0001194  69.7036 290.4084 15.08860739102613,6917.817,95.436,540.508,538.856,0.0
53163.0,STARLINK-4104,PAYLOAD,2024-05-24 21:58:22,15.08825499,3.14e-05,53.2157,219.1633,104.9111,255.1916,-0.00015376,-2.733e-05,0.0,0 STARLINK-4104,1 53163U 22083AH  24145.91553900 -.00002733  00000-0 -15376-3 0  9993,2 53163  53.2157 219.1633 0000314 104.9111 255.1916 15.08825499102668,6917.925,95.438,540.007,539.572,0.0
53163.0,STARLINK-4104,PAYLOAD,2024-05-25 12:16:51,15.08832966,0.0001114,53.2156,216.4935,78.9077,281.2041,-1.6588e-05,-5.52e-06,0.0,0 STARLINK-4104,1 53163U 22083AH  24146.51170211 -.00000552  00000-0 -16588-4 0  9994,2 53163  53.2156 216.4935 0001114  78.9077 281.2041 15.08832966103388,6917.902,95.438,540.538,538.996,0.0
53163.0,STARLINK-4104,PAYLOAD,2024-05-25 13:52:14,15.08833465,0.0001113,53.2154,216.1956,91.4281,268.6838,5.5607e-06,-1.99e-06,0.0,0 STARLINK-4104,1 53163U 22083AH  24146.57794265 -.00000199  00000-0  55607-5 0  9993,2 53163  53.2154 216.1956 0001113  91.4281 268.6838 15.08833465102761,6917.9,95.438,540.535,538.995,0.0
53163.0,STARLINK-4104,PAYLOAD,2024-05-26 12:07:37,15.0885211,0.0001108,53.2156,212.0324,79.1894,280.9223,7.8491e-05,9.62e-06,0.0,0 STARLINK-4104,1 53163U 22083AH  24147.50529512  .00000962  00000-0  78491-4 0  9990,2 53163  53.2156 212.0324 0001108  79.1894 280.9223 15.08852110103533,6917.843,95.437,540.475,538.942,0.0
53163.0,STARLINK-4104,PAYLOAD,2024-05-26 13:43:00,15.08851291,0.0001159,53.2156,211.7356,74.1469,285.9651,7.7397e-05,9.45e-06,0.0,0 STARLINK-4104,1 53163U 22083AH  24147.57153555  .00000945  00000-0  77397-4 0  9992,2 53163  53.2156 211.7356 0001159  74.1469 285.9651 15.08851291102913,6917.846,95.437,540.513,538.909,0.0
53163.0,STARLINK-4104,PAYLOAD,2024-05-26 21:39:56,15.08846299,0.0001022,53.2154,210.2471,73.2664,286.844,-5.4042e-05,-1.148e-05,0.0,0 STARLINK-4104,1 53163U 22083AH  24147.90273614 -.00001148  00000-0 -54042-4 0  9998,2 53163  53.2154 210.2471 0001022  73.2664 286.8440 15.08846299102962,6917.861,95.437,540.433,539.019,0.0
53163.0,STARLINK-4104,PAYLOAD,2024-05-27 04:01:29,15.08839158,0.0001114,53.2147,209.0611,78.3284,281.7833,0.00013657,1.886e-05,0.0,0 STARLINK-4104,1 53163U 22083AH  24148.16770198  .00001886  00000-0  13657-3 0  9999,2 53163  53.2147 209.0611 0001114  78.3284 281.7833 15.08839158103633,6917.883,95.438,540.519,538.977,0.0
53163.0,STARLINK-4104,PAYLOAD,2024-05-27 10:23:02,15.08837732,0.0001445,53.2162,207.8714,63.9333,296.1808,0.0001576,2.221e-05,0.0,0 STARLINK-4104,1 53163U 22083AH  24148.43266315  .00002221  00000-0  15760-3 0  9991,2 53163  53.2162 207.8714 0001445  63.9333 296.1808 15.08837732103045,6917.887,95.438,540.752,538.753,0.0
53163.0,STARLINK-4104,PAYLOAD,2024-05-28 10:13:48,15.08844055,0.0001383,53.2154,203.4106,71.2827,288.8315,1.9485e-05,2.2e-07,0.0,0 STARLINK-4104,1 53163U 22083AH  24149.42626076  .00000022  00000-0  19485-4 0  9991,2 53163  53.2154 203.4106 0001383  71.2827 288.8315 15.08844055103827,6917.868,95.437,540.69,538.776,0.0
53163.0,STARLINK-4104,PAYLOAD,2024-05-29 10:04:35,15.08840631,0.0001276,53.2165,198.9508,85.384,274.7298,3.9466e-05,3.4e-06,0.0,0 STARLINK-4104,1 53163U 22083AH  24150.41985988  .00000340  00000-0  39466-4 0  9996,2 53163  53.2165 198.9508 0001276  85.3840 274.7298 15.08840631103971,6917.878,95.438,540.626,538.861,0.0
